NORAD_CAT_ID,OBJECT_NAME,OBJECT_TYPE,EPOCH,MEAN_MOTION,ECCENTRICITY,INCLINATION,RA_OF_ASC_NODE,ARG_OF_PERICENTER,MEAN_ANOMALY,BSTAR,MEAN_MOTION_DOT,MEAN_MOTION_DDOT,TLE_LINE0,TLE_LINE1,TLE_LINE2,SEMIMAJOR_AXIS,PERIOD,APOGEE,PERIGEE,DECAYED
55953.0,STARLINK-5889,PAYLOAD,2024-02-17 06:34:18,14.98335146,0.0002768,70.0013,359.2312,266.8943,93.19,8.8534e-05,9.64e-06,0.0,0 STARLINK-5889,1 55953U 23037AR  24048.27382888  .00000964  00000-0  88534-4 0  9997,2 55953  70.0013 359.2312 0002768 266.8943  93.1900 14.98335146 52256,6950.177,96.107,573.966,570.118,0.0
55953.0,STARLINK-5889,PAYLOAD,2024-02-17 14:34:56,14.98366159,0.0002992,70.0012,358.3897,266.4927,93.589,0.00040186,4.71e-05,0.0,0 STARLINK-5889,1 55953U 23037AR  24048.60759525  .00004710  00000-0  40186-3 0  9993,2 55953  70.0012 358.3897 0002992 266.4927  93.5890 14.98366159 51967,6950.081,96.105,574.026,569.867,0.0
55953.0,STARLINK-5889,PAYLOAD,2024-02-17 22:35:38,14.98329597,0.0004007,70.0019,357.55,267.2764,92.7936,-9.0829e-06,-2.01e-06,0.0,0 STARLINK-5889,1 55953U 23037AR  24048.94142157 -.00000201  00000-0 -90829-5 0  9991,2 55953  70.0019 357.5500 0004007 267.2764  92.7936 14.98329597 52017,6950.194,96.107,574.844,569.274,0.0
55953.0,STARLINK-5889,PAYLOAD,2024-02-18 03:24:04,14.98326532,0.0003941,69.9989,357.0424,280.2318,79.8396,-0.00026548,-3.259e-05,0.0,0 STARLINK-5889,1 55953U 23037AR  24049.14171347 -.00003259  00000-0 -26548-3 0  9998,2 55953  69.9989 357.0424 0003941 280.2318  79.8396 14.98326532 52388,6950.204,96.107,574.808,569.33,0.0
55953.0,STARLINK-5889,PAYLOAD,2024-02-18 06:36:20,14.98321058,0.0003064,70.0014,356.7067,265.8838,94.197,-0.00020109,-2.491e-05,0.0,0 STARLINK-5889,1 55953U 23037AR  24049.27523493 -.00002491  00000-0 -20109-3 0  9999,2 55953  70.0014 356.7067 0003064 265.8838  94.1970 14.98321058 52062,6950.221,96.108,574.215,569.956,0.0
55953.0,STARLINK-5889,PAYLOAD,2024-02-18 22:37:40,14.98324503,0.0003061,70.0016,355.0252,266.8115,93.2694,-0.00011452,-1.459e-05,0.0,0 STARLINK-5889,1 55953U 23037AR  24049.94283219 -.00001459  00000-0 -11452-3 0  9996,2 55953  70.0016 355.0252 0003061 266.8115  93.2694 14.98324503 52160,6950.21,96.107,574.202,569.947,0.0
55953.0,STARLINK-5889,PAYLOAD,2024-02-19 03:26:04,14.98329844,0.0002981,70.0016,354.5203,261.5714,98.5107,-7.5114e-05,-9.89e-06,0.0,0 STARLINK-5889,1 55953U 23037AR  24050.14310769 -.00000989  00000-0 -75114-4 0  9994,2 55953  70.0016 354.5203 0002981 261.5714  98.5107 14.98329844 52538,6950.193,96.107,574.13,569.987,0.0
55953.0,STARLINK-5889,PAYLOAD,2024-02-19 13:02:53,14.98330849,0.0002847,70.0021,353.5092,271.9788,88.1045,-0.00013037,-1.648e-05,0.0,0 STARLINK-5889,1 55953U 23037AR  24050.54366921 -.00001648  00000-0 -13037-3 0  9997,2 55953  70.0021 353.5092 0002847 271.9788  88.1045 14.98330849 52258,6950.19,96.107,574.034,570.077,0.0
55953.0,STARLINK-5889,PAYLOAD,2024-02-19 22:39:41,14.98328496,0.0002828,70.0023,352.5011,266.4966,93.5869,-0.00021592,-2.668e-05,0.0,0 STARLINK-5889,1 55953U 23037AR  24050.94423080 -.00002668  00000-0 -21592-3 0  9999,2 55953  70.0023 352.5011 0002828 266.4966  93.5869 14.98328496 52312,6950.198,96.107,574.028,570.097,0.0
55953.0,STARLINK-5889,PAYLOAD,2024-02-20 03:28:05,14.98322292,0.0002706,70.0022,351.996,263.3011,96.784,-0.00011076,-1.414e-05,0.0,0 STARLINK-5889,1 55953U 23037AR  24051.14451282 -.00001414  00000-0 -11076-3 0  9991,2 55953  70.0022 351.9960 0002706 263.3011  96.7840 14.98322292 52681,6950.217,96.107,573.962,570.201,0.0
55953.0,STARLINK-5889,PAYLOAD,2024-02-20 13:04:55,14.98290999,0.0003042,70.002,350.9861,264.9078,95.1734,0.0005602,6.591e-05,0.0,0 STARLINK-5889,1 55953U 23037AR  24051.54508118  .00006591  00000-0  56020-3 0  9993,2 55953  70.0020 350.9861 0003042 264.9078  95.1734 14.98290999 52405,6950.314,96.11,574.293,570.064,0.0
55953.0,STARLINK-5889,PAYLOAD,2024-02-20 22:41:42,14.98326641,0.0003015,70.0018,349.976,266.319,93.7624,9.2051e-05,1.005e-05,0.0,0 STARLINK-5889,1 55953U 23037AR  24051.94562996  .00001005  00000-0  92051-4 0  9991,2 55953  70.0018 349.9760 0003015 266.3190  93.7624 14.98326641 52461,6950.203,96.107,574.164,569.973,0.0
55953.0,STARLINK-5889,PAYLOAD,2024-02-21 03:30:06,14.98330828,0.0002988,70.0012,349.4694,266.5595,93.5222,9.5462e-05,1.046e-05,0.0,0 STARLINK-5889,1 55953U 23037AR  24052.14590742  .00001046  00000-0  95462-4 0  9998,2 55953  70.0012 349.4694 0002988 266.5595  93.5222 14.98330828 52830,6950.19,96.107,574.132,569.979,0.0
55953.0,STARLINK-5889,PAYLOAD,2024-02-21 13:06:55,14.98326941,0.0002265,70.0034,348.4595,275.6391,84.4509,4.4574e-05,4.39e-06,0.0,0 STARLINK-5889,1 55953U 23037AR  24052.54647355  .00000439  00000-0  44574-4 0  9998,2 55953  70.0034 348.4595 0002265 275.6391  84.4509 14.98326941 52553,6950.202,96.107,573.642,570.493,0.0
55953.0,STARLINK-5889,PAYLOAD,2024-02-21 22:43:43,14.98322209,0.0002644,70.0029,347.4515,271.2509,88.8347,7.4655e-05,7.98e-06,0.0,0 STARLINK-5889,1 55953U 23037AR  24052.94703564  .00000798  00000-0  74655-4 0  9998,2 55953  70.0029 347.4515 0002644 271.2509  88.8347 14.98322209 52610,6950.217,96.107,573.92,570.244,0.0
55953.0,STARLINK-5889,PAYLOAD,2024-02-22 03:32:08,14.98321243,0.0002603,70.0022,346.9452,268.5253,91.5607,2.6267e-05,2.2e-06,0.0,0 STARLINK-5889,1 55953U 23037AR  24053.14731819  .00000220  00000-0  26267-4 0  9991,2 55953  70.0022 346.9452 0002603 268.5253  91.5607 14.98321243 52984,6950.22,96.108,573.894,570.276,0.0
55953.0,STARLINK-5889,PAYLOAD,2024-02-22 13:08:56,14.98326743,0.0002595,70.0024,345.9356,272.9801,87.1061,2.4419e-05,1.98e-06,0.0,0 STARLINK-5889,1 55953U 23037AR  24053.54787671  .00000198  00000-0  24419-4 0  9993,2 55953  70.0024 345.9356 0002595 272.9801  87.1061 14.98326743 52701,6950.203,96.107,573.872,570.264,0.0
55953.0,STARLINK-5889,PAYLOAD,2024-02-22 19:33:28,14.98347023,0.0002602,70.0021,345.2623,276.0259,84.0603,-0.00017497,-2.181e-05,0.0,0 STARLINK-5889,1 55953U 23037AR  24053.81490896 -.00002181  00000-0 -17497-3 0  9996,2 55953  70.0021 345.2623 0002602 276.0259  84.0603 14.98347023 53083,6950.14,96.106,573.814,570.197,0.0
55953.0,STARLINK-5889,PAYLOAD,2024-02-22 22:45:44,14.9833216,0.0002919,70.0021,344.9257,272.4684,87.6141,4.8545e-05,4.86e-06,0.0,0 STARLINK-5889,1 55953U 23037AR  24053.94843101  .00000486  00000-0  48545-4 0  9994,2 55953  70.0021 344.9257 0002919 272.4684  87.6141 14.98332160 52761,6950.186,96.107,574.08,570.022,0.0
55953.0,STARLINK-5889,PAYLOAD,2024-02-23 13:10:57,14.98329735,0.0002198,70.0034,343.4113,278.0145,82.0765,-1.1485e-05,-2.3e-06,0.0,0 STARLINK-5889,1 55953U 23037AR  24054.54927508 -.00000230  00000-0 -11485-4 0  9997,2 55953  70.0034 343.4113 0002198 278.0145  82.0765 14.98329735 52858,6950.194,96.107,573.586,570.531,0.0
55953.0,STARLINK-5889,PAYLOAD,2024-02-23 19:35:29,14.98324887,0.0002794,70.0023,342.7381,274.2678,85.8162,3.6115e-05,3.38e-06,0.0,0 STARLINK-5889,1 55953U 23037AR  24054.81631441  .00000338  00000-0  36115-4 0  9999,2 55953  70.0023 342.7381 0002794 274.2678  85.8162 14.98324887 53234,6950.209,96.107,574.016,570.132,0.0
55953.0,STARLINK-5889,PAYLOAD,2024-02-23 22:47:45,14.98324943,0.0002792,70.0022,342.4012,273.5161,86.5679,2.041e-05,1.51e-06,0.0,0 STARLINK-5889,1 55953U 23037AR  24054.94983506  .00000151  00000-0  20410-4 0  9999,2 55953  70.0022 342.4012 0002792 273.5161  86.5679 14.98324943 52916,6950.209,96.107,574.014,570.133,0.0
55953.0,STARLINK-5889,PAYLOAD,2024-02-24 05:12:17,14.98328577,0.0002596,70.0021,341.7271,267.8222,92.264,4.6655e-05,4.64e-06,0.0,0 STARLINK-5889,1 55953U 23037AR  24055.21687232  .00000464  00000-0  46655-4 0  9993,2 55953  70.0021 341.7271 0002596 267.8222  92.2640 14.98328577 52953,6950.197,96.107,573.867,570.258,0.0
55953.0,STARLINK-5889,PAYLOAD,2024-02-24 18:01:22,14.98337627,0.0002363,70.0017,340.3808,269.5113,90.5775,-0.00016375,-2.046e-05,0.0,0 STARLINK-5889,1 55953U 23037AR  24055.75095354 -.00002046  00000-0 -16375-3 0  9995,2 55953  70.0017 340.3808 0002363 269.5113  90.5775 14.98337627 53372,6950.169,96.107,573.677,570.392,0.0
55953.0,STARLINK-5889,PAYLOAD,2024-02-25 05:14:17,14.98362543,0.0002393,70.0022,339.2035,269.7528,90.3357,-0.00040269,-4.898e-05,0.0,0 STARLINK-5889,1 55953U 23037AR  24056.21825983 -.00004898  00000-0 -40269-3 0  9992,2 55953  70.0022 339.2035 0002393 269.7528  90.3357 14.98362543 53449,6950.092,96.105,573.62,570.294,0.0
55953.0,STARLINK-5889,PAYLOAD,2024-02-25 11:38:51,14.98331628,0.0001736,70.0045,338.5287,285.6179,74.4788,-7.0177e-05,-9.3e-06,0.0,0 STARLINK-5889,1 55953U 23037AR  24056.48531411 -.00000930  00000-0 -70177-4 0  9996,2 55953  70.0045 338.5287 0001736 285.6179  74.4788 14.98331628 53489,6950.188,96.107,573.259,570.846,0.0
55953.0,STARLINK-5889,PAYLOAD,2024-02-25 22:51:47,14.98328718,0.0002839,70.0014,337.351,269.912,90.1714,3.4269e-06,-5.2e-07,0.0,0 STARLINK-5889,1 55953U 23037AR  24056.95262925 -.00000052  00000-0  34269-5 0  9996,2 55953  70.0014 337.3510 0002839 269.9120  90.1714 14.98328718 53218,6950.197,96.107,574.035,570.089,0.0
55953.0,STARLINK-5889,PAYLOAD,2024-02-26 03:40:11,14.98333469,0.000272,70.0016,336.8465,264.15,95.9349,5.3694e-05,5.48e-06,0.0,0 STARLINK-5889,1 55953U 23037AR  24057.15290527  .00000548  00000-0  53694-4 0  9999,2 55953  70.0016 336.8465 0002720 264.1500  95.9349 14.98333469 53240,6950.182,96.107,573.938,570.157,0.0
55953.0,STARLINK-5889,PAYLOAD,2024-02-26 19:41:32,14.9833038,0.0002571,70.0028,335.1629,255.0397,105.0477,-5.8241e-05,-7.88e-06,0.0,0 STARLINK-5889,1 55953U 23037AR  24057.82050946 -.00000788  00000-0 -58241-4 0  9993,2 55953  70.0028 335.1629 0002571 255.0397 105.0477 14.98330380 53686,6950.192,96.107,573.844,570.27,0.0
55953.0,STARLINK-5889,PAYLOAD,2024-02-26 22:53:48,14.98331278,0.0002825,70.0016,334.8268,253.3216,106.7633,-8.7397e-05,-1.136e-05,0.0,0 STARLINK-5889,1 55953U 23037AR  24057.95402923 -.00001136  00000-0 -87397-4 0  9995,2 55953  70.0016 334.8268 0002825 253.3216 106.7633 14.98331278 53365,6950.189,96.107,574.017,570.091,0.0
